ONEWEB-0229             
1 48779U 21045N   26126.38233085  .00000177  00000+0  43560-3 0  9991
2 48779  87.8974 267.5220 0001935  95.4422 264.6929 13.15549580238910
ONEWEB-0228             
1 48780U 21045P   26126.33969803 -.00000051  00000+0 -17011-3 0  9997
2 48780  87.8982 267.5197 0001814  95.4770 264.6567 13.15548610238827
ONEWEB-0232             
1 48781U 21045Q   26126.39026694  .00000152  00000+0  36841-3 0  9998
2 48781  87.8982 267.5123 0001750  97.9999 262.1330 13.15548756239155
ONEWEB-0231             
1 48782U 21045R   26126.36807686  .00000125  00000+0  29829-3 0  9992
2 48782  87.8962 267.5335 0001756  90.2769 269.8563 13.15549817238842
ONEWEB-0234             
1 48783U 21045S   26126.40595296  .00000013  00000+0  16104-5 0  9999
2 48783  87.8972 267.5058 0001165 121.5766 238.5479 13.15550165238987
ONEWEB-0238             
1 48784U 21045T   26126.40625497  .00000104  00000+0  24100-3 0  9991
2 48784  87.8975 267.4980 0001470 107.8088 252.3203 13.15548751238883
ONEWEB-0240             
1 48785U 21045U   26126.35144349 -.00000026  00000+0 -10198-3 0  9995
2 48785  87.8979 267.5190 0001597  89.4942 270.6372 13.15548173238907
ONEWEB-0246             
1 48786U 21045V   26126.34589731 -.00000095  00000+0 -28521-3 0  9998
2 48786  87.8975 267.5260 0001936  96.1169 264.0182 13.15548570238777
ONEWEB-0210             
1 48787U 21045W   26126.32054921  .00000018  00000+0  12421-4 0  9991
2 48787  87.8974 267.5279 0002469  82.0641 278.0769 13.15547857238816
ONEWEB-0214             
1 48788U 21045X   26126.40531742 -.00000015  00000+0 -73288-4 0  9999
2 48788  87.8979 267.5073 0002179  93.6791 266.4589 13.15547594238792
ONEWEB-0221             
1 48789U 21045Y   26126.33637903 -.00000083  00000+0 -25539-3 0  9998
2 48789  87.8978 267.5306 0001804  91.5945 268.5392 13.15549380238872
ONEWEB-0213             
1 48790U 21045Z   26126.32529608 -.00000029  00000+0 -11070-3 0  9996
2 48790  87.8973 267.5361 0001901  88.8337 271.3012 13.15548755238935
ONEWEB-0212             
1 48791U 21045AA  26126.37837554  .00000181  00000+0  44553-3 0  9993
2 48791  87.8976 267.5200 0001796 100.4820 259.6513 13.15547509238932
ONEWEB-0227             
1 48792U 21045AB  26126.37756740  .00000168  00000+0  41142-3 0  9997
2 48792  87.8972 267.5216 0001761  97.2093 262.9238 13.15549930238888
ONEWEB-0226             
1 48793U 21045AC  26126.37125046 -.00001902  00000+0 -50887-2 0  9991
2 48793  87.8970 267.5286 0001401  49.3219 310.8033 13.15532902238857
ONEWEB-0224             
1 48794U 21045AD  26126.33480278 -.00000123  00000+0 -36189-3 0  9993
2 48794  87.8965 267.5717 0000972  88.9047 271.2194 13.15548284238770
