[{"OBJECT_NAME":"ONEWEB-0229","OBJECT_ID":"2021-045N","EPOCH":"2026-05-06T09:10:33.385440","MEAN_MOTION":13.1554958,"ECCENTRICITY":0.0001935,"INCLINATION":87.8974,"RA_OF_ASC_NODE":267.522,"ARG_OF_PERICENTER":95.4422,"MEAN_ANOMALY":264.6929,"EPHEMERIS_TYPE":0,"CLASSIFICATION_TYPE":"U","NORAD_CAT_ID":48779,"ELEMENT_SET_NO":999,"REV_AT_EPOCH":23891,"BSTAR":0.0004356,"MEAN_MOTION_DOT":1.77e-06,"MEAN_MOTION_DDOT":0.0},{"OBJECT_NAME":"ONEWEB-0228","OBJECT_ID":"2021-045P","EPOCH":"2026-05-06T08:09:09.909792","MEAN_MOTION":13.1554861,"ECCENTRICITY":0.0001814,"INCLINATION":87.8982,"RA_OF_ASC_NODE":267.5197,"ARG_OF_PERICENTER":95.477,"MEAN_ANOMALY":264.6567,"EPHEMERIS_TYPE":0,"CLASSIFICATION_TYPE":"U","NORAD_CAT_ID":48780,"ELEMENT_SET_NO":999,"REV_AT_EPOCH":23882,"BSTAR":-0.00017011,"MEAN_MOTION_DOT":-5.1e-07,"MEAN_MOTION_DDOT":0.0},{"OBJECT_NAME":"ONEWEB-0232","OBJECT_ID":"2021-045Q","EPOCH":"2026-05-06T09:21:59.063616","MEAN_MOTION":13.15548756,"ECCENTRICITY":0.000175,"INCLINATION":87.8982,"RA_OF_ASC_NODE":267.5123,"ARG_OF_PERICENTER":97.9999,"MEAN_ANOMALY":262.133,"EPHEMERIS_TYPE":0,"CLASSIFICATION_TYPE":"U","NORAD_CAT_ID":48781,"ELEMENT_SET_NO":999,"REV_AT_EPOCH":23915,"BSTAR":0.00036841,"MEAN_MOTION_DOT":1.52e-06,"MEAN_MOTION_DDOT":0.0},{"OBJECT_NAME":"ONEWEB-0231","OBJECT_ID":"2021-045R","EPOCH":"2026-05-06T08:50:01.840704","MEAN_MOTION":13.15549817,"ECCENTRICITY":0.0001756,"INCLINATION":87.8962,"RA_OF_ASC_NODE":267.5335,"ARG_OF_PERICENTER":90.2769,"MEAN_ANOMALY":269.8563,"EPHEMERIS_TYPE":0,"CLASSIFICATION_TYPE":"U","NORAD_CAT_ID":48782,"ELEMENT_SET_NO":999,"REV_AT_EPOCH":23884,"BSTAR":0.00029829,"MEAN_MOTION_DOT":1.25e-06,"MEAN_MOTION_DDOT":0.0},{"OBJECT_NAME":"ONEWEB-0234","OBJECT_ID":"2021-045S","EPOCH":"2026-05-06T09:44:34.335744","MEAN_MOTION":13.15550165,"ECCENTRICITY":0.0001165,"INCLINATION":87.8972,"RA_OF_ASC_NODE":267.5058,"ARG_OF_PERICENTER":121.5766,"MEAN_ANOMALY":238.5479,"EPHEMERIS_TYPE":0,"CLASSIFICATION_TYPE":"U","NORAD_CAT_ID":48783,"ELEMENT_SET_NO":999,"REV_AT_EPOCH":23898,"BSTAR":1.6104e-06,"MEAN_MOTION_DOT":1.3e-07,"MEAN_MOTION_DDOT":0.0},{"OBJECT_NAME":"ONEWEB-0238","OBJECT_ID":"2021-045T","EPOCH":"2026-05-06T09:45:00.429408","MEAN_MOTION":13.15548751,"ECCENTRICITY":0.000147,"INCLINATION":87.8975,"RA_OF_ASC_NODE":267.498,"ARG_OF_PERICENTER":107.8088,"MEAN_ANOMALY":252.3203,"EPHEMERIS_TYPE":0,"CLASSIFICATION_TYPE":"U","NORAD_CAT_ID":48784,"ELEMENT_SET_NO":999,"REV_AT_EPOCH":23888,"BSTAR":0.000241,"MEAN_MOTION_DOT":1.04e-06,"MEAN_MOTION_DDOT":0.0},{"OBJECT_NAME":"ONEWEB-0240","OBJECT_ID":"2021-045U","EPOCH":"2026-05-06T08:26:04.717536","MEAN_MOTION":13.15548173,"ECCENTRICITY":0.0001597,"INCLINATION":87.8979,"RA_OF_ASC_NODE":267.519,"ARG_OF_PERICENTER":89.4942,"MEAN_ANOMALY":270.6372,"EPHEMERIS_TYPE":0,"CLASSIFICATION_TYPE":"U","NORAD_CAT_ID":48785,"ELEMENT_SET_NO":999,"REV_AT_EPOCH":23890,"BSTAR":-0.00010198000000000001,"MEAN_MOTION_DOT":-2.6e-07,"MEAN_MOTION_DDOT":0.0},{"OBJECT_NAME":"ONEWEB-0246","OBJECT_ID":"2021-045V","EPOCH":"2026-05-06T08:18:05.527584","MEAN_MOTION":13.1554857,"ECCENTRICITY":0.0001936,"INCLINATION":87.8975,"RA_OF_ASC_NODE":267.526,"ARG_OF_PERICENTER":96.1169,"MEAN_ANOMALY":264.0182,"EPHEMERIS_TYPE":0,"CLASSIFICATION_TYPE":"U","NORAD_CAT_ID":48786,"ELEMENT_SET_NO":999,"REV_AT_EPOCH":23877,"BSTAR":-0.00028521000000000004,"MEAN_MOTION_DOT":-9.5e-07,"MEAN_MOTION_DDOT":0.0},{"OBJECT_NAME":"ONEWEB-0210","OBJECT_ID":"2021-045W","EPOCH":"2026-05-06T07:41:35.451744","MEAN_MOTION":13.15547857,"ECCENTRICITY":0.0002469,"INCLINATION":87.8974,"RA_OF_ASC_NODE":267.5279,"ARG_OF_PERICENTER":82.0641,"MEAN_ANOMALY":278.0769,"EPHEMERIS_TYPE":0,"CLASSIFICATION_TYPE":"U","NORAD_CAT_ID":48787,"ELEMENT_SET_NO":999,"REV_AT_EPOCH":23881,"BSTAR":1.2421e-05,"MEAN_MOTION_DOT":1.8e-07,"MEAN_MOTION_DDOT":0.0},{"OBJECT_NAME":"ONEWEB-0214","OBJECT_ID":"2021-045X","EPOCH":"2026-05-06T09:43:39.425088","MEAN_MOTION":13.15547594,"ECCENTRICITY":0.0002179,"INCLINATION":87.8979,"RA_OF_ASC_NODE":267.5073,"ARG_OF_PERICENTER":93.6791,"MEAN_ANOMALY":266.4589,"EPHEMERIS_TYPE":0,"CLASSIFICATION_TYPE":"U","NORAD_CAT_ID":48788,"ELEMENT_SET_NO":999,"REV_AT_EPOCH":23879,"BSTAR":-7.328800000000001e-05,"MEAN_MOTION_DOT":-1.5e-07,"MEAN_MOTION_DDOT":0.0},{"OBJECT_NAME":"ONEWEB-0221","OBJECT_ID":"2021-045Y","EPOCH":"2026-05-06T08:04:23.148192","MEAN_MOTION":13.1554938,"ECCENTRICITY":0.0001804,"INCLINATION":87.8978,"RA_OF_ASC_NODE":267.5306,"ARG_OF_PERICENTER":91.5945,"MEAN_ANOMALY":268.5392,"EPHEMERIS_TYPE":0,"CLASSIFICATION_TYPE":"U","NORAD_CAT_ID":48789,"ELEMENT_SET_NO":999,"REV_AT_EPOCH":23887,"BSTAR":-0.00025539000000000003,"MEAN_MOTION_DOT":-8.3e-07,"MEAN_MOTION_DDOT":0.0},{"OBJECT_NAME":"ONEWEB-0213","OBJECT_ID":"2021-045Z","EPOCH":"2026-05-06T07:48:25.581312","MEAN_MOTION":13.15548755,"ECCENTRICITY":0.0001901,"INCLINATION":87.8973,"RA_OF_ASC_NODE":267.5361,"ARG_OF_PERICENTER":88.8337,"MEAN_ANOMALY":271.3012,"EPHEMERIS_TYPE":0,"CLASSIFICATION_TYPE":"U","NORAD_CAT_ID":48790,"ELEMENT_SET_NO":999,"REV_AT_EPOCH":23893,"BSTAR":-0.00011070000000000001,"MEAN_MOTION_DOT":-2.9e-07,"MEAN_MOTION_DDOT":0.0},{"OBJECT_NAME":"ONEWEB-0212","OBJECT_ID":"2021-045AA","EPOCH":"2026-05-06T09:04:51.646656","MEAN_MOTION":13.15547509,"ECCENTRICITY":0.0001796,"INCLINATION":87.8976,"RA_OF_ASC_NODE":267.52,"ARG_OF_PERICENTER":100.482,"MEAN_ANOMALY":259.6513,"EPHEMERIS_TYPE":0,"CLASSIFICATION_TYPE":"U","NORAD_CAT_ID":48791,"ELEMENT_SET_NO":999,"REV_AT_EPOCH":23893,"BSTAR":0.00044552999999999997,"MEAN_MOTION_DOT":1.81e-06,"MEAN_MOTION_DDOT":0.0},{"OBJECT_NAME":"ONEWEB-0227","OBJECT_ID":"2021-045AB","EPOCH":"2026-05-06T09:03:41.823360","MEAN_MOTION":13.1554993,"ECCENTRICITY":0.0001761,"INCLINATION":87.8972,"RA_OF_ASC_NODE":267.5216,"ARG_OF_PERICENTER":97.2093,"MEAN_ANOMALY":262.9238,"EPHEMERIS_TYPE":0,"CLASSIFICATION_TYPE":"U","NORAD_CAT_ID":48792,"ELEMENT_SET_NO":999,"REV_AT_EPOCH":23888,"BSTAR":0.00041142,"MEAN_MOTION_DOT":1.68e-06,"MEAN_MOTION_DDOT":0.0},{"OBJECT_NAME":"ONEWEB-0226","OBJECT_ID":"2021-045AC","EPOCH":"2026-05-06T08:54:36.039744","MEAN_MOTION":13.15532902,"ECCENTRICITY":0.0001401,"INCLINATION":87.897,"RA_OF_ASC_NODE":267.5286,"ARG_OF_PERICENTER":49.3219,"MEAN_ANOMALY":310.8033,"EPHEMERIS_TYPE":0,"CLASSIFICATION_TYPE":"U","NORAD_CAT_ID":48793,"ELEMENT_SET_NO":999,"REV_AT_EPOCH":23885,"BSTAR":-0.005088700000000001,"MEAN_MOTION_DOT":-1.902e-05,"MEAN_MOTION_DDOT":0.0},{"OBJECT_NAME":"ONEWEB-0224","OBJECT_ID":"2021-045AD","EPOCH":"2026-05-06T08:02:06.960192","MEAN_MOTION":13.15548284,"ECCENTRICITY":9.72e-05,"INCLINATION":87.8965,"RA_OF_ASC_NODE":267.5717,"ARG_OF_PERICENTER":88.9047,"MEAN_ANOMALY":271.2194,"EPHEMERIS_TYPE":0,"CLASSIFICATION_TYPE":"U","NORAD_CAT_ID":48794,"ELEMENT_SET_NO":999,"REV_AT_EPOCH":23877,"BSTAR":-0.00036189,"MEAN_MOTION_DOT":-1.23e-06,"MEAN_MOTION_DDOT":0.0}]